[
  {
    "COMMENT": "GENERATED VIA SPACETRACK.ORG API",
    "ORIGINATOR": "18 SPCS",
    "NORAD_CAT_ID": "25260",
    "OBJECT_NAME": "SPOT 4",
    "OBJECT_TYPE": "PAYLOAD",
    "CLASSIFICATION_TYPE": "U",
    "INTLDES": "98017A",
    "EPOCH": "2023-05-28 20:32:19",
    "EPOCH_MICROSECONDS": "899168",
    "MEAN_MOTION": "14.54184722",
    "ECCENTRICITY": "0.0014138",
    "INCLINATION": "98.2626",
    "RA_OF_ASC_NODE": "242.0778",
    "ARG_OF_PERICENTER": "71.0312",
    "MEAN_ANOMALY": "289.2416",
    "EPHEMERIS_TYPE": "0",
    "ELEMENT_SET_NO": "999",
    "REV_AT_EPOCH": "31734",
    "BSTAR": "0.00011102",
    "MEAN_MOTION_DOT": "0.00000425",
    "MEAN_MOTION_DDOT": "0",
    "FILE": "3919479",
    "TLE_LINE0": "0 SPOT 4",
    "TLE_LINE1": "1 25260U 98017A   23148.85578587  .00000425  00000-0  11102-3 0  9990",
    "TLE_LINE2": "2 25260  98.2626 242.0778 0014138  71.0312 289.2416 14.54184722317349",
    "OBJECT_ID": "1998-017A",
    "OBJECT_NUMBER": "25260",
    "SEMIMAJOR_AXIS": "7090.151",
    "PERIOD": "99.025",
    "APOGEE": "722.040",
    "PERIGEE": "701.991",
    "DECAYED": "0"
  },
  {
    "COMMENT": "GENERATED VIA SPACETRACK.ORG API",
    "ORIGINATOR": "18 SPCS",
    "NORAD_CAT_ID": "25260",
    "OBJECT_NAME": "SPOT 4",
    "OBJECT_TYPE": "PAYLOAD",
    "CLASSIFICATION_TYPE": "U",
    "INTLDES": "98017A",
    "EPOCH": "2023-05-28 20:32:19",
    "EPOCH_MICROSECONDS": "899168",
    "MEAN_MOTION": "14.54184722",
    "ECCENTRICITY": "0.0014138",
    "INCLINATION": "98.2626",
    "RA_OF_ASC_NODE": "242.0778",
    "ARG_OF_PERICENTER": "71.0312",
    "MEAN_ANOMALY": "289.2416",
    "EPHEMERIS_TYPE": "0",
    "ELEMENT_SET_NO": "999",
    "REV_AT_EPOCH": "31710",
    "BSTAR": "0.00011102",
    "MEAN_MOTION_DOT": "0.00000425",
    "MEAN_MOTION_DDOT": "0",
    "FILE": "3919546",
    "TLE_LINE0": "0 SPOT 4",
    "TLE_LINE1": "1 25260U 98017A   23148.85578587  .00000425  00000-0  11102-3 0  9990",
    "TLE_LINE2": "2 25260  98.2626 242.0778 0014138  71.0312 289.2416 14.54184722317103",
    "OBJECT_ID": "1998-017A",
    "OBJECT_NUMBER": "25260",
    "SEMIMAJOR_AXIS": "7090.151",
    "PERIOD": "99.025",
    "APOGEE": "722.040",
    "PERIGEE": "701.991",
    "DECAYED": "0"
  },
  {
    "COMMENT": "GENERATED VIA SPACETRACK.ORG API",
    "ORIGINATOR": "18 SPCS",
    "NORAD_CAT_ID": "25260",
    "OBJECT_NAME": "SPOT 4",
    "OBJECT_TYPE": "PAYLOAD",
    "CLASSIFICATION_TYPE": "U",
    "INTLDES": "98017A",
    "EPOCH": "2023-05-29 04:47:44",
    "EPOCH_MICROSECONDS": "762496",
    "MEAN_MOTION": "14.54184893",
    "ECCENTRICITY": "0.0014125",
    "INCLINATION": "98.2626",
    "RA_OF_ASC_NODE": "242.4175",
    "ARG_OF_PERICENTER": "70.0778",
    "MEAN_ANOMALY": "290.1939",
    "EPHEMERIS_TYPE": "0",
    "ELEMENT_SET_NO": "999",
    "REV_AT_EPOCH": "31739",
    "BSTAR": "0.00010488",
    "MEAN_MOTION_DOT": "0.00000399",
    "MEAN_MOTION_DDOT": "0",
    "FILE": "3919770",
    "TLE_LINE0": "0 SPOT 4",
    "TLE_LINE1": "1 25260U 98017A   23149.19982364  .00000399  00000-0  10488-3 0  9996",
    "TLE_LINE2": "2 25260  98.2626 242.4175 0014125  70.0778 290.1939 14.54184893317390",
    "OBJECT_ID": "1998-017A",
    "OBJECT_NUMBER": "25260",
    "SEMIMAJOR_AXIS": "7090.150",
    "PERIOD": "99.025",
    "APOGEE": "722.030",
    "PERIGEE": "702.000",
    "DECAYED": "0"
  },
  {
    "COMMENT": "GENERATED VIA SPACETRACK.ORG API",
    "ORIGINATOR": "18 SPCS",
    "NORAD_CAT_ID": "25260",
    "OBJECT_NAME": "SPOT 4",
    "OBJECT_TYPE": "PAYLOAD",
    "CLASSIFICATION_TYPE": "U",
    "INTLDES": "98017A",
    "EPOCH": "2023-05-29 06:26:49",
    "EPOCH_MICROSECONDS": "732224",
    "MEAN_MOTION": "14.54184966",
    "ECCENTRICITY": "0.0014122",
    "INCLINATION": "98.2626",
    "RA_OF_ASC_NODE": "242.4855",
    "ARG_OF_PERICENTER": "69.8821",
    "MEAN_ANOMALY": "290.3894",
    "EPHEMERIS_TYPE": "0",
    "ELEMENT_SET_NO": "999",
    "REV_AT_EPOCH": "31740",
    "BSTAR": "0.0001049",
    "MEAN_MOTION_DOT": "0.00000399",
    "MEAN_MOTION_DDOT": "0",
    "FILE": "3920013",
    "TLE_LINE0": "0 SPOT 4",
    "TLE_LINE1": "1 25260U 98017A   23149.26863116  .00000399  00000-0  10490-3 0  9990",
    "TLE_LINE2": "2 25260  98.2626 242.4855 0014122  69.8821 290.3894 14.54184966317402",
    "OBJECT_ID": "1998-017A",
    "OBJECT_NUMBER": "25260",
    "SEMIMAJOR_AXIS": "7090.150",
    "PERIOD": "99.025",
    "APOGEE": "722.027",
    "PERIGEE": "702.002",
    "DECAYED": "0"
  },
  {
    "COMMENT": "GENERATED VIA SPACETRACK.ORG API",
    "ORIGINATOR": "18 SPCS",
    "NORAD_CAT_ID": "25260",
    "OBJECT_NAME": "SPOT 4",
    "OBJECT_TYPE": "PAYLOAD",
    "CLASSIFICATION_TYPE": "U",
    "INTLDES": "98017A",
    "EPOCH": "2023-05-29 06:26:49",
    "EPOCH_MICROSECONDS": "732224",
    "MEAN_MOTION": "14.54184966",
    "ECCENTRICITY": "0.0014122",
    "INCLINATION": "98.2626",
    "RA_OF_ASC_NODE": "242.4855",
    "ARG_OF_PERICENTER": "69.8821",
    "MEAN_ANOMALY": "290.3894",
    "EPHEMERIS_TYPE": "0",
    "ELEMENT_SET_NO": "999",
    "REV_AT_EPOCH": "31716",
    "BSTAR": "0.0001049",
    "MEAN_MOTION_DOT": "0.00000399",
    "MEAN_MOTION_DDOT": "0",
    "FILE": "3920065",
    "TLE_LINE0": "0 SPOT 4",
    "TLE_LINE1": "1 25260U 98017A   23149.26863116  .00000399  00000-0  10490-3 0  9990",
    "TLE_LINE2": "2 25260  98.2626 242.4855 0014122  69.8821 290.3894 14.54184966317165",
    "OBJECT_ID": "1998-017A",
    "OBJECT_NUMBER": "25260",
    "SEMIMAJOR_AXIS": "7090.150",
    "PERIOD": "99.025",
    "APOGEE": "722.027",
    "PERIGEE": "702.002",
    "DECAYED": "0"
  },
  {
    "COMMENT": "GENERATED VIA SPACETRACK.ORG API",
    "ORIGINATOR": "18 SPCS",
    "NORAD_CAT_ID": "25260",
    "OBJECT_NAME": "SPOT 4",
    "OBJECT_TYPE": "PAYLOAD",
    "CLASSIFICATION_TYPE": "U",
    "INTLDES": "98017A",
    "EPOCH": "2023-05-29 19:39:29",
    "EPOCH_MICROSECONDS": "486592",
    "MEAN_MOTION": "14.54185407",
    "ECCENTRICITY": "0.0014107",
    "INCLINATION": "98.2626",
    "RA_OF_ASC_NODE": "243.029",
    "ARG_OF_PERICENTER": "68.3383",
    "MEAN_ANOMALY": "291.9315",
    "EPHEMERIS_TYPE": "0",
    "ELEMENT_SET_NO": "999",
    "REV_AT_EPOCH": "31748",
    "BSTAR": "0.0001013",
    "MEAN_MOTION_DOT": "0.00000384",
    "MEAN_MOTION_DDOT": "0",
    "FILE": "3920282",
    "TLE_LINE0": "0 SPOT 4",
    "TLE_LINE1": "1 25260U 98017A   23149.81909128  .00000384  00000-0  10130-3 0  9990",
    "TLE_LINE2": "2 25260  98.2626 243.0290 0014107  68.3383 291.9315 14.54185407317486",
    "OBJECT_ID": "1998-017A",
    "OBJECT_NUMBER": "25260",
    "SEMIMAJOR_AXIS": "7090.148",
    "PERIOD": "99.025",
    "APOGEE": "722.015",
    "PERIGEE": "702.011",
    "DECAYED": "0"
  },
  {
    "COMMENT": "GENERATED VIA SPACETRACK.ORG API",
    "ORIGINATOR": "18 SPCS",
    "NORAD_CAT_ID": "25260",
    "OBJECT_NAME": "SPOT 4",
    "OBJECT_TYPE": "PAYLOAD",
    "CLASSIFICATION_TYPE": "U",
    "INTLDES": "98017A",
    "EPOCH": "2023-05-30 00:36:44",
    "EPOCH_MICROSECONDS": "390592",
    "MEAN_MOTION": "14.54185561",
    "ECCENTRICITY": "0.0014096",
    "INCLINATION": "98.2626",
    "RA_OF_ASC_NODE": "243.2328",
    "ARG_OF_PERICENTER": "67.7574",
    "MEAN_ANOMALY": "292.5117",
    "EPHEMERIS_TYPE": "0",
    "ELEMENT_SET_NO": "999",
    "REV_AT_EPOCH": "31751",
    "BSTAR": "0.00010057",
    "MEAN_MOTION_DOT": "0.00000381",
    "MEAN_MOTION_DDOT": "0",
    "FILE": "3920580",
    "TLE_LINE0": "0 SPOT 4",
    "TLE_LINE1": "1 25260U 98017A   23150.02551378  .00000381  00000-0  10057-3 0  9990",
    "TLE_LINE2": "2 25260  98.2626 243.2328 0014096  67.7574 292.5117 14.54185561317514",
    "OBJECT_ID": "1998-017A",
    "OBJECT_NUMBER": "25260",
    "SEMIMAJOR_AXIS": "7090.148",
    "PERIOD": "99.025",
    "APOGEE": "722.007",
    "PERIGEE": "702.019",
    "DECAYED": "0"
  },
  {
    "COMMENT": "GENERATED VIA SPACETRACK.ORG API",
    "ORIGINATOR": "18 SPCS",
    "NORAD_CAT_ID": "25260",
    "OBJECT_NAME": "SPOT 4",
    "OBJECT_TYPE": "PAYLOAD",
    "CLASSIFICATION_TYPE": "U",
    "INTLDES": "98017A",
    "EPOCH": "2023-05-30 05:33:59",
    "EPOCH_MICROSECONDS": "295456",
    "MEAN_MOTION": "14.54185691",
    "ECCENTRICITY": "0.0014087",
    "INCLINATION": "98.2626",
    "RA_OF_ASC_NODE": "243.4366",
    "ARG_OF_PERICENTER": "67.1651",
    "MEAN_ANOMALY": "293.1032",
    "EPHEMERIS_TYPE": "0",
    "ELEMENT_SET_NO": "999",
    "REV_AT_EPOCH": "31754",
    "BSTAR": "0.00009789",
    "MEAN_MOTION_DOT": "0.00000369",
    "MEAN_MOTION_DDOT": "0",
    "FILE": "3920869",
    "TLE_LINE0": "0 SPOT 4",
    "TLE_LINE1": "1 25260U 98017A   23150.23193629  .00000369  00000-0  97890-4 0  9991",
    "TLE_LINE2": "2 25260  98.2626 243.4366 0014087  67.1651 293.1032 14.54185691317548",
    "OBJECT_ID": "1998-017A",
    "OBJECT_NUMBER": "25260",
    "SEMIMAJOR_AXIS": "7090.147",
    "PERIOD": "99.024",
    "APOGEE": "722.000",
    "PERIGEE": "702.024",
    "DECAYED": "0"
  },
  {
    "COMMENT": "GENERATED VIA SPACETRACK.ORG API",
    "ORIGINATOR": "18 SPCS",
    "NORAD_CAT_ID": "25260",
    "OBJECT_NAME": "SPOT 4",
    "OBJECT_TYPE": "PAYLOAD",
    "CLASSIFICATION_TYPE": "U",
    "INTLDES": "98017A",
    "EPOCH": "2023-05-30 05:33:59",
    "EPOCH_MICROSECONDS": "295456",
    "MEAN_MOTION": "14.54185691",
    "ECCENTRICITY": "0.0014087",
    "INCLINATION": "98.2626",
    "RA_OF_ASC_NODE": "243.4366",
    "ARG_OF_PERICENTER": "67.1651",
    "MEAN_ANOMALY": "293.1032",
    "EPHEMERIS_TYPE": "0",
    "ELEMENT_SET_NO": "999",
    "REV_AT_EPOCH": "31730",
    "BSTAR": "0.00009789",
    "MEAN_MOTION_DOT": "0.00000369",
    "MEAN_MOTION_DDOT": "0",
    "FILE": "3920920",
    "TLE_LINE0": "0 SPOT 4",
    "TLE_LINE1": "1 25260U 98017A   23150.23193629  .00000369  00000-0  97890-4 0  9991",
    "TLE_LINE2": "2 25260  98.2626 243.4366 0014087  67.1651 293.1032 14.54185691317302",
    "OBJECT_ID": "1998-017A",
    "OBJECT_NUMBER": "25260",
    "SEMIMAJOR_AXIS": "7090.147",
    "PERIOD": "99.024",
    "APOGEE": "722.000",
    "PERIGEE": "702.024",
    "DECAYED": "0"
  }
]